[{"OBJECT_NAME":"GAOFEN-9 05","OBJECT_ID":"2020-058A","EPOCH":"2026-03-10T00:01:50.876256","MEAN_MOTION":15.30293976,"ECCENTRICITY":0.0010522,"INCLINATION":97.2228,"RA_OF_ASC_NODE":111.963,"ARG_OF_PERICENTER":91.0204,"MEAN_ANOMALY":269.2242,"EPHEMERIS_TYPE":0,"CLASSIFICATION_TYPE":"U","NORAD_CAT_ID":46232,"ELEMENT_SET_NO":999,"REV_AT_EPOCH":30843,"BSTAR":0.00025120304,"MEAN_MOTION_DOT":7.299e-5,"MEAN_MOTION_DDOT":0},{"OBJECT_NAME":"STARLINK-32341","OBJECT_ID":"2024-191U","EPOCH":"2026-03-09T22:30:29.356992","MEAN_MOTION":15.27568221,"ECCENTRICITY":0.00014554,"INCLINATION":43.0033,"RA_OF_ASC_NODE":153.1642,"ARG_OF_PERICENTER":265.1921,"MEAN_ANOMALY":94.8764,"EPHEMERIS_TYPE":0,"CLASSIFICATION_TYPE":"U","NORAD_CAT_ID":61639,"ELEMENT_SET_NO":999,"REV_AT_EPOCH":7757,"BSTAR":1.2380026e-5,"MEAN_MOTION_DOT":7.8e-7,"MEAN_MOTION_DDOT":0}]
